[
    {
        "Altitude(m)": 607911.0244381619,
        "Argument of Periapsis(deg)": 0.0,
        "Eccentricity": 0.0,
        "Inclination(deg)": 60.0,
        "Latitude(deg)": -14.293031057943734,
        "Longitude(deg)": -61.557337951564996,
        "Mean Anomaly(deg)": -163.6364,
        "RAAN(deg)": 210.0,
        "Satellite Name": "Test1 936",
        "Satellite Number": 936,
        "Semi-Major Axis(m)": 6980739.136638005,
        "Time(s)": 0
    },
    {
        "Altitude(m)": 608060.2585028486,
        "Argument of Periapsis(deg)": 0.00010418945913296404,
        "Eccentricity": 0.0,
        "Inclination(deg)": 60.0,
        "Latitude(deg)": -14.826692163377349,
        "Longitude(deg)": -61.26872783022918,
        "Mean Anomaly(deg)": -163.01629385453822,
        "RAAN(deg)": 209.99957995086027,
        "Satellite Name": "Test1 936",
        "Satellite Number": 936,
        "Semi-Major Axis(m)": 6980739.136638005,
        "Time(s)": 10
    }
]